BEESAT-4                
1 41619U 16040W   23002.70622142  .00023458  00000+0  61886-3 0  9996
2 41619  97.1902  53.5481 0008986 114.8633 245.3547 15.38439692351272
CAS-2T & KS-1Q          
1 41847U 16066G   23003.14238812  .00000874  00000+0  14103-3 0  9990
2 41847  98.5278  72.3869 0361789 332.4307  25.8094 14.38991101323065
NAYIF-1 (EO-88)         
1 42017U 17008BX  23002.74892772  .00031670  00000+0  70330-3 0  9995
2 42017  97.2444  71.7257 0002722 242.7502 117.3469 15.43638730327711
ZHUHAI-1 02 (CAS-4B)    
1 42759U 17034B   23003.32967458  .00007539  00000+0  42214-3 0  9993
2 42759  43.0182 309.6646 0008729 115.5758  19.8308 15.13784030306627
ZHUHAI-1 01 (CAS-4A)    
1 42761U 17034D   23003.35520428  .00007573  00000+0  42276-3 0  9997
2 42761  43.0184 308.1613 0009154 118.0918  25.4789 15.13886856306635
MAX VALIER SAT          
1 42778U 17036P   23003.09776738  .00013323  00000+0  44477-3 0  9990
2 42778  97.1817  42.5300 0009243 345.4857  14.6118 15.31121036307409
RADFXSAT (FOX-1B)       
1 43017U 17073E   23003.13642344  .00005037  00000+0  37295-3 0  9991
2 43017  97.6527 254.0868 0241186 252.9639 104.5024 14.83208534276698
FOX-1D (AO-92)          
1 43137U 18004AC  23002.18498043  .00019147  00000+0  57617-3 0  9995
2 43137  97.3507  80.9273 0007602  25.9203 334.2419 15.34382763276762
DIWATA-2B               
1 43678U 18084H   23003.59187133  .00001002  00000+0  10307-3 0  9990
2 43678  97.9957 144.6117 0009686 353.5551   6.5549 14.92600444227707
ES'HAIL 2               
1 43700U 18090A   23003.31125247  .00000156  00000+0  00000+0 0  9995
2 43700   0.0187  30.9438 0001812 287.5872 281.9579  1.00272220 15272
FOX-1CLIFF (AO-95)      
1 43770U 18099N   23003.45617853  .00004207  00000+0  36428-3 0  9993
2 43770  97.5981  69.4791 0012606 330.7953  29.2563 14.97601031222930
ITASAT 1                
1 43786U 18099AE  23002.90442523  .00002938  00000+0  25603-3 0  9991
2 43786  97.6005  69.9558 0013814 322.0737  37.9512 14.97582837222894
JY1SAT (JO-97)          
1 43803U 18099AX  23003.10831767  .00003866  00000+0  32874-3 0  9995
2 43803  97.5963  69.9961 0013460 318.8991  41.1217 14.98349327222958
UWE-4                   
1 43880U 18111E   23002.69220980  .00005403  00000+0  44343-3 0  9990
2 43880  97.6605 270.5223 0013001  25.7863 334.4006 14.99558726219542
NEXUS (FO-99)           
1 43937U 19003F   23002.80481714  .00020298  00000+0  56099-3 0  9991
2 43937  97.1106  33.8868 0018379 152.6552 207.5665 15.36893086220523
PSAT2 (NO-104)          
1 44354U 19036R   23002.87962644  .00228159  91257-5  81330-3 0  9996
2 44354  28.5159 206.3935 0113290 105.7145 255.5992 15.77884195195725
JAISAT-1                
1 44419U 19038F   23002.83570221  .00011813  00000+0  52735-3 0  9996
2 44419  97.6591 340.3506 0018213 154.8546 205.3580 15.21380367193327
DUCHIFAT-3              
1 44854U 19089C   23003.32646731  .00006309  00000+0  46748-3 0  9991
2 44854  36.9657 354.0768 0006304  39.4590 111.7163 15.02823911167993
CAS-6 (TIANQIN 1)       
1 44881U 19093C   23003.51854201  .00000905  00000+0  12051-3 0  9996
2 44881  97.8778  84.7190 0013519 253.9251 106.0482 14.82007464164400
RS-44 & BREEZE-KM R/B   
1 44909U 19096E   23002.71142441  .00000016  00000+0  21100-4 0  9996
2 44909  82.5217  97.9065 0217061 213.6080 145.1096 12.79717477140997
ORBITAL FACTORY 2 (OF-2)
1 45113U 19071C   23002.80075769  .00083010  00000+0  90295-3 0  9990
2 45113  51.6316 148.8736 0008623 203.4486 156.6116 15.62683964164334
HUSKYSAT-1 (HO-107)     
1 45119U 19071J   23003.11111714  .00064733  00000+0  81922-3 0  9990
2 45119  51.6322 150.1629 0008589 196.2801 163.7916 15.58845031164332
BY70-2                  
1 45857U 20042B   23003.46157582  .00012193  00000+0  15031-2 0  9990
2 45857  97.9412  83.6369 0009956 182.7667 177.3529 14.83011718135067
SALSAT                  
1 46495U 20068K   23002.89256060  .00003068  00000+0  21660-3 0  9991
2 46495  97.7521 309.6049 0015143 327.5513  32.4781 15.05622109124184
BY70-3                  
1 46839U 20079N   23003.53492395  .00070285  00000+0  10070-2 0  9997
2 46839  97.1759  79.2886 0003533 334.0169 140.2619 15.55936620121188
RADFXSAT-2 (AO-109)     
1 47311U 21002C   23003.17105665  .00014332  00000+0  49473-3 0  9992
2 47311  60.6844 328.3638 0039041  92.2872 268.2689 15.29533242108978
UVSQ-SAT                
1 47438U 21006AB  23002.89246483  .00009000  00000+0  43828-3 0  9992
2 47438  97.4127  62.8461 0009918 306.8900  53.1425 15.18547004107517
DIY-1 (ARDUIQUBE)       
1 47963U 21022AH  23002.67903925  .00032841  00000+0  14132-2 0  9994
2 47963  97.5171 267.5541 0014065 153.4057 206.7904 15.22462584 97151
XW-3 (CAS-9)            
1 50466U 21131B   23003.62915367  .00000357  00000+0  13099-3 0  9995
2 50466  98.5665  85.6426 0003534 268.2014  91.8768 14.38609959 53697
TEVEL-3                 
1 50988U 22002E   23003.45551720  .00012988  00000+0  64391-3 0  9996
2 50988  97.4589  72.2338 0010244  89.4119  37.4323 15.17822609 53711
TEVEL-8                 
1 50989U 22002F   23003.32444830  .00012845  00000+0  63795-3 0  9995
2 50989  97.4600  72.1453 0010315  90.2800 334.1987 15.17761224 53694
TEVEL-5                 
1 50998U 22002Q   23003.46187795  .00013185  00000+0  64275-3 0  9996
2 50998  97.4580  72.4667 0011831  86.4881 330.0559 15.18391498 53739
TEVEL-6                 
1 50999U 22002R   23003.45275941  .00013178  00000+0  64229-3 0  9998
2 50999  97.4579  72.4537 0011729  86.5572 285.8594 15.18398526 53733
TEVEL-1                 
1 51013U 22002AF  23003.44848587  .00012932  00000+0  64168-3 0  9996
2 51013  97.4581  72.1904 0010269  89.2012 327.5314 15.17791542 53712
TEVEL-7                 
1 51062U 22002CG  23003.44877520  .00012863  00000+0  63877-3 0  9998
2 51062  97.4597  72.2473 0010198  88.1360 284.0380 15.17765404 53718
TEVEL-4                 
1 51063U 22002CH  23003.45931892  .00012759  00000+0  63400-3 0  9999
2 51063  97.4594  72.2493 0010280  89.1317 329.1000 15.17744409 53715
TEVEL-2                 
1 51069U 22002CP  23003.44486204  .00012949  00000+0  64208-3 0  9994
2 51069  97.4578  72.2023 0010122  88.6403 330.0286 15.17818730 53713
GREENCUBE               
1 53106U 22080B   22354.08419093 -.00000003  00000+0  00000+0 0  9999
2 53106  70.1702  21.9397 0008914 226.9685 182.2049  6.42557326 10248
YUZGU 9 (RS3S)          
1 53308U 98067TT  23003.32388212  .00251020  00000+0  12801-2 0  9999
2 53308  51.6338  52.4935 0006097 359.3118   0.7874 15.80098154 25933
YUZGU 7 (RS1S)          
1 53309U 98067TU  23003.59997854  .00270307  00000+0  12767-2 0  9997
2 53309  51.6321  50.5726 0006654   2.6784 357.4253 15.81707383 25934
YUZGU 11 (RS5S)         
1 53310U 98067TV  23003.38427680  .00267523  00000+0  13450-2 0  9997
2 53310  51.6349  52.1476 0006094 357.2680   2.8287 15.80363721 25928
YUZGU 12 (RS6S)         
1 53311U 98067TW  23003.36760486  .00316094  00000+0  13850-2 0  9992
2 53311  51.6300  51.2631 0006447   4.5249 355.5811 15.83194551 25954
TSIOLKOVSKY-RYAZAN 1 (*)
1 53312U 98067TX  23003.61043897  .00258038  00000+0  12551-2 0  9991
2 53312  51.6306  50.6507 0006821   0.5392 359.5617 15.81103688 25921
TSIOLKOVSKY-RYAZAN 2 (*)
1 53313U 98067TY  23003.61811634  .00272931  00000+0  13156-2 0  9994
2 53313  51.6361  50.5307 0006505   3.3530  80.4612 15.81262649 25977
YUZGU 10 (RS4S)         
1 53321U 98067TZ  23003.49611450  .00239903  00000+0  11946-2 0  9990
2 53321  51.6340  51.3918 0006246 359.0439   1.0550 15.80648401 25952
RS29S (SXC3-2110 CYCLO*)
1 53373U 22096D   23003.33153360  .00018939  00000+0  68922-3 0  9991
2 53373  97.4275 268.9445 0003201  54.8488  54.7038 15.28271903 22423
RS32S (SXC3-212 MONITO*)
1 53374U 22096E   23003.32900373  .00016548  00000+0  60351-3 0  9997
2 53374  97.4281 268.9532 0002745  58.4949  81.6744 15.28231735 22424
RS34S (SXC3-218 KUZBAS*)
1 53375U 22096F   23003.48755036  .00015154  00000+0  56153-3 0  9996
2 53375  97.4275 269.0676 0002888  50.4534 124.1981 15.27725633 22441
RS23S (SXC3-21 UTMN)    
1 53376U 22096G   23003.48205332  .00015815  00000+0  58362-3 0  9994
2 53376  97.4280 269.0742 0002784  55.7184 116.4725 15.27851722 22445
RS28S (SXC3-214 MIET-A*)
1 53377U 22096H   23003.48380851  .00014976  00000+0  55478-3 0  9997
2 53377  97.4283 269.0761 0002866  50.7041 124.5798 15.27736981 22447
RS26S (KAI-1)           
1 53378U 22096J   23003.49349066  .00013104  00000+0  49017-3 0  9996
2 53378  97.4280 269.0601 0002584  41.8600 132.5402 15.27449439 22447
RS19S (SXC3-219 ISOI)   
1 53381U 22096M   23003.50307089  .00015274  00000+0  55668-3 0  9990
2 53381  97.4271 269.1981 0002539 310.0440 224.3863 15.28270424 22455
RS21S (CUBESX-HSE-2)    
1 53383U 22096P   23003.29803188  .00015613  00000+0  56775-3 0  9996
2 53383  97.4282 269.0072 0002700 312.8642 198.5711 15.28339773 22427
RS30S (SXC3-217 SIREN)  
1 53384U 22096Q   23003.56199167  .00014433  00000+0  52898-3 0  9993
2 53384  97.4277 269.2530 0002748 309.8472 172.7663 15.28098737 22468
RS20S (GEOSCAN-EDELVEIS)
1 53385U 22096R   23003.31460779  .00019629  00000+0  69236-3 0  9993
2 53385  97.4273 269.1307 0002895 309.6310 196.4003 15.29291475 22464
RS33S (SXC3-215 VIZARD) 
1 53386U 22096S   23003.45265924  .00023638  00000+0  80797-3 0  9994
2 53386  97.4269 269.3880 0003605 310.1909 164.9677 15.30274399 22486
CAS-5A (FO-118)         
1 54684U 22167C   23003.46724219  .00009491  00000+0  60065-3 0  9990
2 54684  97.5384 143.0245 0014711 177.8422 271.1454 15.09113273  3794
CAS-10                  
1 54816U 21035C   23003.61735197  .00111316  00000+0  11540-2 0  9997
2 54816  41.4778  78.5831 0006472 307.0519  52.9731 15.63517222  2466
